start=new Date('2023-02-24T00:00:00.000Z').valueOf();
sats=[{"LAUNCH_DATE":"2021-03-11","FILE":"3828819","MEAN_MOTION":"15.06388517","BSTAR":"0.00175140000000","OBJECT_TYPE":"PAYLOAD","EPOCH":"2023-02-23T09:16:51.688704","TLE_LINE1":"1 47802U 21018R   23054.38670936  .00025894  00000-0  17514-2 0  9997","REF_FRAME":"TEME","GP_ID":"226565912","INCLINATION":"53.0524","RA_OF_ASC_NODE":"200.9636","PERIAPSIS":"546.587","MEAN_ANOMALY":"291.4793","MEAN_ELEMENT_THEORY":"SGP4","MEAN_MOTION_DDOT":"0.0000000000000","COUNTRY_CODE":"US","RCS_SIZE":"LARGE","APOAPSIS":"547.910","TIME_SYSTEM":"UTC","EPHEMERIS_TYPE":"0","TLE_LINE2":"2 47802  53.0524 200.9636 0000955  68.6298 291.4793 15.06388517109184","CLASSIFICATION_TYPE":"U","OBJECT_ID":"2021-018R","REV_AT_EPOCH":"10918","ECCENTRICITY":"0.00009550","ARG_OF_PERICENTER":"68.6298","PERIOD":"95.593","ELEMENT_SET_NO":"999","SITE":"AFETR","CENTER_NAME":"EARTH","MEAN_MOTION_DOT":"0.00025894","DECAY_DATE":null,"OBJECT_NAME":"STARLINK-2383","NORAD_CAT_ID":"47802","SEMIMAJOR_AXIS":"6925.384"},{"PERIOD":"95.592","SITE":"AFETR","ELEMENT_SET_NO":"999","CENTER_NAME":"EARTH","TLE_LINE2":"2 47803  53.0518 175.3828 0001140  95.6619 264.4500 15.06396550109542","EPHEMERIS_TYPE":"0","CLASSIFICATION_TYPE":"U","REV_AT_EPOCH":"10954","OBJECT_ID":"2021-018S","ECCENTRICITY":"0.00011400","ARG_OF_PERICENTER":"95.6619","NORAD_CAT_ID":"47803","OBJECT_NAME":"STARLINK-2384","SEMIMAJOR_AXIS":"6925.359","MEAN_MOTION_DOT":"0.00029812","DECAY_DATE":null,"EPOCH":"2023-02-23T12:23:18.642336","GP_ID":"226567161","INCLINATION":"53.0518","REF_FRAME":"TEME","TLE_LINE1":"1 47803U 21018S   23054.51618799  .00029812  00000-0  20120-2 0  9993","RA_OF_ASC_NODE":"175.3828","LAUNCH_DATE":"2021-03-11","FILE":"3828819","MEAN_MOTION":"15.06396550","BSTAR":"0.00201200000000","OBJECT_TYPE":"PAYLOAD","COUNTRY_CODE":"US","RCS_SIZE":"LARGE","APOAPSIS":"548.014","TIME_SYSTEM":"UTC","PERIAPSIS":"546.435","MEAN_ANOMALY":"264.4500","MEAN_MOTION_DDOT":"0.0000000000000","MEAN_ELEMENT_THEORY":"SGP4"},{"DECAY_DATE":null,"MEAN_MOTION_DOT":"0.00026917","SEMIMAJOR_AXIS":"6925.329","NORAD_CAT_ID":"47804","OBJECT_NAME":"STARLINK-2385","ARG_OF_PERICENTER":"94.5194","ECCENTRICITY":"0.00013950","REV_AT_EPOCH":"10924","OBJECT_ID":"2021-018T","TLE_LINE2":"2 47804  53.0531 174.1241 0001395  94.5194 265.5954 15.06406377109243","EPHEMERIS_TYPE":"0","CLASSIFICATION_TYPE":"U","CENTER_NAME":"EARTH","ELEMENT_SET_NO":"999","SITE":"AFETR","PERIOD":"95.592","MEAN_MOTION_DDOT":"0.0000000000000","MEAN_ELEMENT_THEORY":"SGP4","MEAN_ANOMALY":"265.5954","PERIAPSIS":"546.228","TIME_SYSTEM":"UTC","RCS_SIZE":"LARGE","APOAPSIS":"548.160","COUNTRY_CODE":"US","BSTAR":"0.00181870000000","OBJECT_TYPE":"PAYLOAD","FILE":"3829084","MEAN_MOTION":"15.06406377","LAUNCH_DATE":"2021-03-11","RA_OF_ASC_NODE":"174.1241","INCLINATION":"53.0531","GP_ID":"226575704","TLE_LINE1":"1 47804U 21018T   23054.79632058  .00026917  00000-0  18187-2 0  9991","REF_FRAME":"TEME","EPOCH":"2023-02-23T19:06:42.098112"},{"COUNTRY_CODE":"US","APOAPSIS":"548.152","RCS_SIZE":"LARGE","TIME_SYSTEM":"UTC","PERIAPSIS":"546.214","MEAN_ANOMALY":"259.1307","MEAN_MOTION_DDOT":"0.0000000000000","MEAN_ELEMENT_THEORY":"SGP4","EPOCH":"2023-02-23T16:43:24.410784","INCLINATION":"53.0517","GP_ID":"226584283","TLE_LINE1":"1 47805U 21018U   23054.69681031  .00001250  00000-0  10277-3 0  9992","REF_FRAME":"TEME","RA_OF_ASC_NODE":"174.8106","LAUNCH_DATE":"2021-03-11","MEAN_MOTION":"15.06409922","FILE":"3829459","OBJECT_TYPE":"PAYLOAD","BSTAR":"0.00010277000000","NORAD_CAT_ID":"47805","OBJECT_NAME":"STARLINK-2386","SEMIMAJOR_AXIS":"6925.318","MEAN_MOTION_DOT":"0.00001250","DECAY_DATE":null,"PERIOD":"95.592","SITE":"AFETR","ELEMENT_SET_NO":"999","CENTER_NAME":"EARTH","TLE_LINE2":"2 47805  53.0517 174.8106 0001399 100.9839 259.1307 15.06409922109225","EPHEMERIS_TYPE":"0","CLASSIFICATION_TYPE":"U","OBJECT_ID":"2021-018U","REV_AT_EPOCH":"10922","ECCENTRICITY":"0.00013990","ARG_OF_PERICENTER":"100.9839"},{"MEAN_MOTION_DOT":"0.00019646","DECAY_DATE":null,"OBJECT_NAME":"STARLINK-2387","NORAD_CAT_ID":"47806","SEMIMAJOR_AXIS":"6925.426","TLE_LINE2":"2 47806  53.0526 191.0535 0000874  49.4076 310.6989 15.06374618109378","CLASSIFICATION_TYPE":"U","EPHEMERIS_TYPE":"0","REV_AT_EPOCH":"10937","OBJECT_ID":"2021-018V","ECCENTRICITY":"0.00008740","ARG_OF_PERICENTER":"49.4076","PERIOD":"95.594","ELEMENT_SET_NO":"999","SITE":"AFETR","CENTER_NAME":"EARTH","PERIAPSIS":"546.686","MEAN_ANOMALY":"310.6989","MEAN_ELEMENT_THEORY":"SGP4","MEAN_MOTION_DDOT":"0.0000000000000","COUNTRY_CODE":"US","RCS_SIZE":"LARGE","APOAPSIS":"547.897","TIME_SYSTEM":"UTC","LAUNCH_DATE":"2021-03-11","MEAN_MOTION":"15.06374618","FILE":"3828819","BSTAR":"0.00133500000000","OBJECT_TYPE":"PAYLOAD","EPOCH":"2023-02-23T08:51:38.375424","REF_FRAME":"TEME","TLE_LINE1":"1 47806U 21018V   23054.36919416  .00019646  00000-0  13350-2 0  9990","INCLINATION":"53.0526","GP_ID":"226566412","RA_OF_ASC_NODE":"191.0535"},{"LAUNCH_DATE":"2021-03-11","MEAN_MOTION":"15.06396166","FILE":"3829474","BSTAR":"0.00031619000000","OBJECT_TYPE":"PAYLOAD","EPOCH":"2023-02-23T16:34:05.775168","TLE_LINE1":"1 47807U 21018W   23054.69034462  .00004431  00000-0  31619-3 0  9991","REF_FRAME":"TEME","INCLINATION":"53.0515","GP_ID":"226583817","RA_OF_ASC_NODE":"164.5987","PERIAPSIS":"546.496","MEAN_ANOMALY":"261.2371","MEAN_ELEMENT_THEORY":"SGP4","MEAN_MOTION_DDOT":"0.0000000000000","COUNTRY_CODE":"US","APOAPSIS":"547.955","RCS_SIZE":"LARGE","TIME_SYSTEM":"UTC","EPHEMERIS_TYPE":"0","TLE_LINE2":"2 47807  53.0515 164.5987 0001053  98.8738 261.2371 15.06396166109363","CLASSIFICATION_TYPE":"U","OBJECT_ID":"2021-018W","REV_AT_EPOCH":"10936","ECCENTRICITY":"0.00010530","ARG_OF_PERICENTER":"98.8738","PERIOD":"95.592","SITE":"AFETR","ELEMENT_SET_NO":"999","CENTER_NAME":"EARTH","MEAN_MOTION_DOT":"0.00004431","DECAY_DATE":null,"OBJECT_NAME":"STARLINK-2388","NORAD_CAT_ID":"47807","SEMIMAJOR_AXIS":"6925.360"},{"PERIAPSIS":"546.464","MEAN_ELEMENT_THEORY":"SGP4","MEAN_MOTION_DDOT":"0.0000000000000","MEAN_ANOMALY":"274.1884","COUNTRY_CODE":"US","TIME_SYSTEM":"UTC","APOAPSIS":"547.802","RCS_SIZE":"LARGE","LAUNCH_DATE":"2021-03-11","BSTAR":"0.00166220000000","OBJECT_TYPE":"PAYLOAD","FILE":"3829461","MEAN_MOTION":"15.06426379","TLE_LINE1":"1 47808U 21018X   23054.85205273  .00024581  00000-0  16622-2 0  9994","REF_FRAME":"TEME","INCLINATION":"53.0524","GP_ID":"226583824","EPOCH":"2023-02-23T20:26:57.355872","RA_OF_ASC_NODE":"188.8734","MEAN_MOTION_DOT":"0.00024581","DECAY_DATE":null,"OBJECT_NAME":"STARLINK-2389","NORAD_CAT_ID":"47808","SEMIMAJOR_AXIS":"6925.268","OBJECT_ID":"2021-018X","REV_AT_EPOCH":"10904","EPHEMERIS_TYPE":"0","TLE_LINE2":"2 47808  53.0524 188.8734 0000966  85.9216 274.1884 15.06426379109040","CLASSIFICATION_TYPE":"U","ARG_OF_PERICENTER":"85.9216","ECCENTRICITY":"0.00009660","PERIOD":"95.590","CENTER_NAME":"EARTH","ELEMENT_SET_NO":"999","SITE":"AFETR"},{"COUNTRY_CODE":"US","RCS_SIZE":"LARGE","APOAPSIS":"548.137","TIME_SYSTEM":"UTC","PERIAPSIS":"546.255","MEAN_ANOMALY":"286.9542","MEAN_ELEMENT_THEORY":"SGP4","MEAN_MOTION_DDOT":"0.0000000000000","EPOCH":"2023-02-23T12:35:12.970752","TLE_LINE1":"1 47809U 21018Y   23054.52445568  .00021243  00000-0  14405-2 0  9991","REF_FRAME":"TEME","GP_ID":"226565663","INCLINATION":"53.0520","RA_OF_ASC_NODE":"195.3348","LAUNCH_DATE":"2021-03-11","FILE":"3828819","MEAN_MOTION":"15.06405793","BSTAR":"0.00144050000000","OBJECT_TYPE":"PAYLOAD","OBJECT_NAME":"STARLINK-2390","NORAD_CAT_ID":"47809","SEMIMAJOR_AXIS":"6925.331","MEAN_MOTION_DOT":"0.00021243","DECAY_DATE":null,"PERIOD":"95.592","ELEMENT_SET_NO":"999","SITE":"AFETR","CENTER_NAME":"EARTH","TLE_LINE2":"2 47809  53.0520 195.3348 0001359  73.1596 286.9542 15.06405793109328","CLASSIFICATION_TYPE":"U","EPHEMERIS_TYPE":"0","REV_AT_EPOCH":"10932","OBJECT_ID":"2021-018Y","ECCENTRICITY":"0.00013590","ARG_OF_PERICENTER":"73.1596"},{"NORAD_CAT_ID":"47810","OBJECT_NAME":"STARLINK-2391","SEMIMAJOR_AXIS":"6925.359","MEAN_MOTION_DOT":"0.00028025","DECAY_DATE":null,"PERIOD":"95.592","CENTER_NAME":"EARTH","ELEMENT_SET_NO":"999","SITE":"AFETR","REV_AT_EPOCH":"10916","OBJECT_ID":"2021-018Z","CLASSIFICATION_TYPE":"U","TLE_LINE2":"2 47810  53.0532 205.8232 0001365  76.2017 283.9124 15.06396715109169","EPHEMERIS_TYPE":"0","ARG_OF_PERICENTER":"76.2017","ECCENTRICITY":"0.00013650","COUNTRY_CODE":"US","TIME_SYSTEM":"UTC","RCS_SIZE":"LARGE","APOAPSIS":"548.169","PERIAPSIS":"546.278","MEAN_MOTION_DDOT":"0.0000000000000","MEAN_ELEMENT_THEORY":"SGP4","MEAN_ANOMALY":"283.9124","GP_ID":"226565913","INCLINATION":"53.0532","TLE_LINE1":"1 47810U 21018Z   23054.41758860  .00028025  00000-0  18930-2 0  9995","REF_FRAME":"TEME","EPOCH":"2023-02-23T10:01:19.655040","RA_OF_ASC_NODE":"205.8232","LAUNCH_DATE":"2021-03-11","OBJECT_TYPE":"PAYLOAD","BSTAR":"0.00189300000000","FILE":"3828819","MEAN_MOTION":"15.06396715"},{"PERIOD":"95.591","CENTER_NAME":"EARTH","SITE":"AFETR","ELEMENT_SET_NO":"999","REV_AT_EPOCH":"10960","OBJECT_ID":"2021-018AA","TLE_LINE2":"2 47811  53.0513 175.3492 0000943  90.8718 269.2379 15.06420960109607","EPHEMERIS_TYPE":"0","CLASSIFICATION_TYPE":"U","ARG_OF_PERICENTER":"90.8718","ECCENTRICITY":"0.00009430","NORAD_CAT_ID":"47811","OBJECT_NAME":"STARLINK-2392","SEMIMAJOR_AXIS":"6925.284","MEAN_MOTION_DOT":"0.00039306","DECAY_DATE":null,"GP_ID":"226567162","INCLINATION":"53.0513","TLE_LINE1":"1 47811U 21018AA  23054.52355592  .00039306  00000-0  26415-2 0  9994","REF_FRAME":"TEME","EPOCH":"2023-02-23T12:33:55.231488","RA_OF_ASC_NODE":"175.3492","LAUNCH_DATE":"2021-03-11","OBJECT_TYPE":"PAYLOAD","BSTAR":"0.00264150000000","MEAN_MOTION":"15.06420960","FILE":"3828819","COUNTRY_CODE":"US","TIME_SYSTEM":"UTC","RCS_SIZE":"LARGE","APOAPSIS":"547.802","PERIAPSIS":"546.496","MEAN_MOTION_DDOT":"0.0000000000000","MEAN_ELEMENT_THEORY":"SGP4","MEAN_ANOMALY":"269.2379"}];
